{"type": "FeatureCollection", "features": [ {"type": "Feature", "properties": {"norad_id": 34963, "name": "COSMOS 2251 DEB", "group": "cosmos-2251-debris", "lat": -74.15582705980799, "lon": -71.23093647548427, "alt_km": 711.651487660738, "timestamp": "2025-12-24T18:55:56.467452+00:00", "meta": {"OBJECT_NAME": "COSMOS 2251 DEB", "OBJECT_ID": "1993-036AES", "EPOCH": "2025-12-22T19:22:05.292480", "MEAN_MOTION": 14.51171721, "ECCENTRICITY": 0.00421225, "INCLINATION": 74.1708, "RA_OF_ASC_NODE": 23.9592, "ARG_OF_PERICENTER": 218.4859, "MEAN_ANOMALY": 141.3297, "EPHEMERIS_TYPE": 0, "CLASSIFICATION_TYPE": "U", "NORAD_CAT_ID": 34963, "ELEMENT_SET_NO": 999, "REV_AT_EPOCH": 86947, "BSTAR": 0.0011861563, "MEAN_MOTION_DOT": 4.738e-05, "MEAN_MOTION_DDOT": 0}, "tle": {"line1": "1 34963U 93036AES 25356.80700570  .00004738  00000+0  11862-2 0  9995", "line2": "2 34963  74.1708  23.9592 0042122 218.4859 141.3297 14.51171721869473"}}, "geometry": {"type": "Point", "coordinates": [-71.23093647548427, -74.15582705980799]}}, {"type": "Feature", "properties": {"norad_id": 34964, "name": "COSMOS 2251 DEB", "group": "cosmos-2251-debris", "lat": -72.18476198708213, "lon": -149.67791783092957, "alt_km": 866.8614182554111, "timestamp": "2025-12-24T18:55:56.467463+00:00", "meta": {"OBJECT_NAME": "COSMOS 2251 DEB", "OBJECT_ID": "1993-036AET", "EPOCH": "2025-12-18T07:25:04.519776", "MEAN_MOTION": 14.00628567, "ECCENTRICITY": 0.02123167, "INCLINATION": 73.9712, "RA_OF_ASC_NODE": 338.1457, "ARG_OF_PERICENTER": 195.4091, "MEAN_ANOMALY": 164.0515, "EPHEMERIS_TYPE": 0, "CLASSIFICATION_TYPE": "U", "NORAD_CAT_ID": 34964, "ELEMENT_SET_NO": 999, "REV_AT_EPOCH": 84556, "BSTAR": 0.00089791859, "MEAN_MOTION_DOT": 1.6e-05, "MEAN_MOTION_DDOT": 0}, "tle": {"line1": "1 34964U 93036AET 25352.30908009  .00001600  00000+0  89792-3 0  9997", "line2": "2 34964  73.9712 338.1457 0212316 195.4091 164.0515 14.00628567845561"}}, "geometry": {"type": "Point", "coordinates": [-149.67791783092957, -72.18476198708213]}}, {"type": "Feature", "properties": {"norad_id": 34965, "name": "COSMOS 2251 DEB", "group": "cosmos-2251-debris", "lat": -67.44104844323377, "lon": -30.589241267188864, "alt_km": 719.2990777642963, "timestamp": "2025-12-24T18:55:56.467473+00:00", "meta": {"OBJECT_NAME": "COSMOS 2251 DEB", "OBJECT_ID": "1993-036AEU", "EPOCH": "2025-12-23T13:35:23.542944", "MEAN_MOTION": 14.48733014, "ECCENTRICITY": 0.00264239, "INCLINATION": 74.0518, "RA_OF_ASC_NODE": 108.1991, "ARG_OF_PERICENTER": 234.0681, "MEAN_ANOMALY": 125.8027, "EPHEMERIS_TYPE": 0, "CLASSIFICATION_TYPE": "U", "NORAD_CAT_ID": 34965, "ELEMENT_SET_NO": 999, "REV_AT_EPOCH": 87270, "BSTAR": 0.00031518339, "MEAN_MOTION_DOT": 1.166e-05, "MEAN_MOTION_DDOT": 0}, "tle": {"line1": "1 34965U 93036AEU 25357.56624471  .00001166  00000+0  31518-3 0  9999", "line2": "2 34965  74.0518 108.1991 0026423 234.0681 125.8027 14.48733014872708"}}, "geometry": {"type": "Point", "coordinates": [-30.589241267188864, -67.44104844323377]}}, {"type": "Feature", "properties": {"norad_id": 34967, "name": "COSMOS 2251 DEB", "group": "cosmos-2251-debris", "lat": -25.787464739178088, "lon": -136.58339284718238, "alt_km": 729.1384975489718, "timestamp": "2025-12-24T18:55:56.467483+00:00", "meta": {"OBJECT_NAME": "COSMOS 2251 DEB", "OBJECT_ID": "1993-036AEW", "EPOCH": "2025-12-13T00:27:20.673792", "MEAN_MOTION": 14.44269018, "ECCENTRICITY": 0.00380101, "INCLINATION": 73.9933, "RA_OF_ASC_NODE": 253.3374, "ARG_OF_PERICENTER": 39.5345, "MEAN_ANOMALY": 320.8573, "EPHEMERIS_TYPE": 0, "CLASSIFICATION_TYPE": "U", "NORAD_CAT_ID": 34967, "ELEMENT_SET_NO": 999, "REV_AT_EPOCH": 64961, "BSTAR": 0.0011451852, "MEAN_MOTION_DOT": 3.946e-05, "MEAN_MOTION_DDOT": 0}, "tle": {"line1": "1 34967U 93036AEW 25347.01898928  .00003946  00000+0  11452-2 0  9992", "line2": "2 34967  73.9933 253.3374 0038010  39.5345 320.8573 14.44269018649616"}}, "geometry": {"type": "Point", "coordinates": [-136.58339284718238, -25.787464739178088]}}, {"type": "Feature", "properties": {"norad_id": 34968, "name": "COSMOS 2251 DEB", "group": "cosmos-2251-debris", "lat": 52.741968763834606, "lon": 21.999169974345186, "alt_km": 738.480383451687, "timestamp": "2025-12-24T18:55:56.467494+00:00", "meta": {"OBJECT_NAME": "COSMOS 2251 DEB", "OBJECT_ID": "1993-036AEX", "EPOCH": "2025-12-23T01:14:18.762720", "MEAN_MOTION": 14.59422462, "ECCENTRICITY": 0.00871055, "INCLINATION": 74.0381, "RA_OF_ASC_NODE": 227.4133, "ARG_OF_PERICENTER": 345.2402, "MEAN_ANOMALY": 14.6221, "EPHEMERIS_TYPE": 0, "CLASSIFICATION_TYPE": "U", "NORAD_CAT_ID": 34968, "ELEMENT_SET_NO": 999, "REV_AT_EPOCH": 88628, "BSTAR": 0.00012972503, "MEAN_MOTION_DOT": 6.15e-06, "MEAN_MOTION_DDOT": 0}, "tle": {"line1": "1 34968U 93036AEX 25357.05160605  .00000615  00000+0  12973-3 0  9992", "line2": "2 34968  74.0381 227.4133 0087105 345.2402  14.6221 14.59422462886285"}}, "geometry": {"type": "Point", "coordinates": [21.999169974345186, 52.741968763834606]}}, {"type": "Feature", "properties": {"norad_id": 34969, "name": "COSMOS 2251 DEB", "group": "cosmos-2251-debris", "lat": 58.67678521286825, "lon": 153.024342106188, "alt_km": 727.247996254453, "timestamp": "2025-12-24T18:55:56.467505+00:00", "meta": {"OBJECT_NAME": "COSMOS 2251 DEB", "OBJECT_ID": "1993-036AEY", "EPOCH": "2025-12-21T18:18:22.827744", "MEAN_MOTION": 14.32268431, "ECCENTRICITY": 0.00731947, "INCLINATION": 74.0139, "RA_OF_ASC_NODE": 6.6546, "ARG_OF_PERICENTER": 137.5862, "MEAN_ANOMALY": 223.0979, "EPHEMERIS_TYPE": 0, "CLASSIFICATION_TYPE": "U", "NORAD_CAT_ID": 34969, "ELEMENT_SET_NO": 999, "REV_AT_EPOCH": 65266, "BSTAR": 0.0001981389, "MEAN_MOTION_DOT": 5.25e-06, "MEAN_MOTION_DDOT": 0}, "tle": {"line1": "1 34969U 93036AEY 25355.76276421  .00000525  00000+0  19814-3 0  9994", "line2": "2 34969  74.0139   6.6546 0073194 137.5862 223.0979 14.32268431652661"}}, "geometry": {"type": "Point", "coordinates": [153.024342106188, 58.67678521286825]}}, {"type": "Feature", "properties": {"norad_id": 34971, "name": "COSMOS 2251 DEB", "group": "cosmos-2251-debris", "lat": 20.490181433128935, "lon": -91.73543865768436, "alt_km": 717.9419299756355, "timestamp": "2025-12-24T18:55:56.467515+00:00", "meta": {"OBJECT_NAME": "COSMOS 2251 DEB", "OBJECT_ID": "1993-036AFA", "EPOCH": "2025-12-18T11:38:13.277760", "MEAN_MOTION": 14.55642375, "ECCENTRICITY": 0.00693978, "INCLINATION": 73.9787, "RA_OF_ASC_NODE": 274.0839, "ARG_OF_PERICENTER": 138.3039, "MEAN_ANOMALY": 342.538, "EPHEMERIS_TYPE": 0, "CLASSIFICATION_TYPE": "U", "NORAD_CAT_ID": 34971, "ELEMENT_SET_NO": 999, "REV_AT_EPOCH": 66256, "BSTAR": 0.00012982435, "MEAN_MOTION_DOT": 5.55e-06, "MEAN_MOTION_DDOT": 0}, "tle": {"line1": "1 34971U 93036AFA 25352.48487590  .00000555  00000+0  12982-3 0  9996", "line2": "2 34971  73.9787 274.0839 0069397 138.3039 342.5380 14.55642375662563"}}, "geometry": {"type": "Point", "coordinates": [-91.73543865768436, 20.490181433128935]}}, {"type": "Feature", "properties": {"norad_id": 34972, "name": "COSMOS 2251 DEB", "group": "cosmos-2251-debris", "lat": -53.33793871156812, "lon": 3.6244420004589655, "alt_km": 669.7084092407877, "timestamp": "2025-12-24T18:55:56.467588+00:00", "meta": {"OBJECT_NAME": "COSMOS 2251 DEB", "OBJECT_ID": "1993-036AFB", "EPOCH": "2025-12-21T13:38:31.765344", "MEAN_MOTION": 14.73012342, "ECCENTRICITY": 0.00329831, "INCLINATION": 73.9871, "RA_OF_ASC_NODE": 32.6088, "ARG_OF_PERICENTER": 189.946, "MEAN_ANOMALY": 322.6145, "EPHEMERIS_TYPE": 0, "CLASSIFICATION_TYPE": "U", "NORAD_CAT_ID": 34972, "ELEMENT_SET_NO": 999, "REV_AT_EPOCH": 87780, "BSTAR": 0.0011476529, "MEAN_MOTION_DOT": 7.412e-05, "MEAN_MOTION_DDOT": 0}, "tle": {"line1": "1 34972U 93036AFB 25355.56842321  .00007412  00000+0  11477-2 0  9992", "line2": "2 34972  73.9871  32.6088 0032983 189.9460 322.6145 14.73012342877801"}}, "geometry": {"type": "Point", "coordinates": [3.6244420004589655, -53.33793871156812]}}, {"type": "Feature", "properties": {"norad_id": 34976, "name": "COSMOS 2251 DEB", "group": "cosmos-2251-debris", "lat": -16.831872016938267, "lon": 107.62883403881148, "alt_km": 665.1127213369582, "timestamp": "2025-12-24T18:55:56.467600+00:00", "meta": {"OBJECT_NAME": "COSMOS 2251 DEB", "OBJECT_ID": "1993-036AFF", "EPOCH": "2025-12-24T01:53:03.735744", "MEAN_MOTION": 14.76803159, "ECCENTRICITY": 0.00478172, "INCLINATION": 74.0579, "RA_OF_ASC_NODE": 284.0577, "ARG_OF_PERICENTER": 328.3095, "MEAN_ANOMALY": 54.6089, "EPHEMERIS_TYPE": 0, "CLASSIFICATION_TYPE": "U", "NORAD_CAT_ID": 34976, "ELEMENT_SET_NO": 999, "REV_AT_EPOCH": 88441, "BSTAR": 0.0016053667, "MEAN_MOTION_DOT": 0.00011463, "MEAN_MOTION_DDOT": 0}, "tle": {"line1": "1 34976U 93036AFF 25358.07851546  .00011463  00000+0  16054-2 0  9991", "line2": "2 34976  74.0579 284.0577 0047817 328.3095  54.6089 14.76803159884414"}}, "geometry": {"type": "Point", "coordinates": [107.62883403881148, -16.831872016938267]}}, {"type": "Feature", "properties": {"norad_id": 34979, "name": "COSMOS 2251 DEB", "group": "cosmos-2251-debris", "lat": 6.063472795489385, "lon": -114.70246764072165, "alt_km": 609.1654251544551, "timestamp": "2025-12-24T18:55:56.467611+00:00", "meta": {"OBJECT_NAME": "COSMOS 2251 DEB", "OBJECT_ID": "1993-036AFJ", "EPOCH": "2025-12-24T02:40:34.256640", "MEAN_MOTION": 14.79539389, "ECCENTRICITY": 0.0049197, "INCLINATION": 74.0387, "RA_OF_ASC_NODE": 244.8878, "ARG_OF_PERICENTER": 320.4952, "MEAN_ANOMALY": 39.2641, "EPHEMERIS_TYPE": 0, "CLASSIFICATION_TYPE": "U", "NORAD_CAT_ID": 34979, "ELEMENT_SET_NO": 999, "REV_AT_EPOCH": 88388, "BSTAR": 0.0011011811, "MEAN_MOTION_DOT": 8.386e-05, "MEAN_MOTION_DDOT": 0}, "tle": {"line1": "1 34979U 93036AFJ 25358.11150760  .00008386  00000+0  11012-2 0  9998", "line2": "2 34979  74.0387 244.8878 0049197 320.4952  39.2641 14.79539389883887"}}, "geometry": {"type": "Point", "coordinates": [-114.70246764072165, 6.063472795489385]}}]}